CSS (TIANHE)            
1 48274U 21035A   23258.21126944  .00032724  00000+0  36220-3 0  9998
2 48274  41.4747 328.3068 0008638  19.3875 340.7291 15.62264814135905
